     2.10           G: GLONASS NAV DATA                     RINEX VERSION / TYPE
teqc  2009Oct19     IGN                 20121101 00:57:14UTCPGM / RUN BY / DATE
    16                                                      LEAP SECONDS
  2012    10    30    1.597218215466D-07                    CORR TO SYSTEM TIME
                                                            END OF HEADER
 5 12 10 31 11 15  0.0-1.723133027554D-04 0.000000000000D+00 3.963000000000D+04
    4.685349121094D+03 2.639979362488D+00 1.862645149231D-09 0.000000000000D+00
   -1.008607519531D+04 1.703146934509D+00 1.862645149231D-09 1.000000000000D+00
   -2.296166699219D+04-2.087459564209D-01 9.313225746155D-10 0.000000000000D+00
20 12 10 31 11 15  0.0-1.025758683681D-05-1.818989403546D-12 3.963000000000D+04
   -2.244852050781D+03-9.732532501221D-02-9.313225746155D-10 0.000000000000D+00
   -2.405898681641D+04-1.118204116821D+00 1.862645149231D-09 2.000000000000D+00
   -8.091515625000D+03 3.357048034668D+00 9.313225746155D-10 0.000000000000D+00
21 12 10 31 11 15  0.0-7.478520274162D-07 9.094947017729D-13 3.963000000000D+04
   -8.910349121094D+03 6.691932678223D-02 0.000000000000D+00 0.000000000000D+00
   -1.250264257813D+04-2.790273666382D+00 9.313225746155D-10 4.000000000000D+00
   -2.041134619141D+04 1.671497344971D+00 2.793967723846D-09 0.000000000000D+00
 4 12 10 31 11 15  0.0 2.332963049412D-05 0.000000000000D+00 3.963000000000D+04
    1.870207031250D+04 2.046147346497D+00 4.656612873077D-09 0.000000000000D+00
    2.313139648438D+03 1.172850608826D+00 1.862645149231D-09 6.000000000000D+00
   -1.717389355469D+04 2.383514404297D+00 0.000000000000D+00 0.000000000000D+00
14 12 10 31 11 15  0.0 2.404302358627D-05-2.728484105319D-12 3.963000000000D+04
    1.559116552734D+04-2.499614715576D+00 3.725290298462D-09 0.000000000000D+00
    2.045600585938D+03 1.157633781433D+00 9.313225746155D-10-7.000000000000D+00
   -2.006862304687D+04-1.833008766174D+00 0.000000000000D+00 0.000000000000D+00
 6 12 10 31 11 15  0.0 2.075824886560D-05 0.000000000000D+00 3.963000000000D+04
   -1.222598095703D+04 1.684868812561D+00-9.313225746155D-10 0.000000000000D+00
   -1.647650488281D+04 1.212370872498D+00 9.313225746155D-10-4.000000000000D+00
   -1.514881347656D+04-2.682854652405D+00 2.793967723846D-09 0.000000000000D+00
22 12 10 31 11 15  0.0 6.275344640017D-05 9.094947017729D-13 3.963000000000D+04
   -1.077623876953D+04 2.133398056030D-01 9.313225746155D-10 0.000000000000D+00
    6.804704589844D+03-3.018789291382D+00 0.000000000000D+00-3.000000000000D+00
   -2.212489550781D+04-1.019472122192D+00 1.862645149231D-09 0.000000000000D+00
13 12 10 31 11 15  0.0-3.671031445265D-04-9.094947017729D-13 3.963000000000D+04
   -1.362583007813D+02-2.733213424683D+00 2.793967723846D-09 0.000000000000D+00
    1.170814599609D+04 1.472908020020D+00 0.000000000000D+00-2.000000000000D+00
   -2.267714599609D+04 7.756071090698D-01 9.313225746155D-10 0.000000000000D+00
 7 12 10 31 11 15  0.0-4.111602902412D-05-9.094947017729D-13 5.037000000000D+04
   -2.175444189453D+04-2.349290847778D-01-4.656612873077D-09 0.000000000000D+00
   -1.325410644531D+04 5.020809173584D-02-9.313225746155D-10 5.000000000000D+00
    1.282293945312D+03-3.568577766418D+00 1.862645149231D-09 0.000000000000D+00
11 12 10 31 11 15  0.0-5.631241947412D-05 0.000000000000D+00 5.037000000000D+04
   -2.311552685547D+04 7.877616882324D-01-2.793967723846D-09 0.000000000000D+00
    9.074764160156D+03-1.711950302124D-01-2.793967723846D-09 0.000000000000D+00
    5.668536132812D+03 3.494034767151D+00 9.313225746155D-10 0.000000000000D+00
12 12 10 31 11 15  0.0-1.033293083310D-04 1.818989403546D-12 5.037000000000D+04
   -1.672706103516D+04-1.438120841980D+00-0.000000000000D+00 0.000000000000D+00
    1.483726171875D+04 9.176454544067D-01-1.862645149231D-09-1.000000000000D+00
   -1.246358105469D+04 3.012352943420D+00 1.862645149231D-09 0.000000000000D+00
19 12 10 31 11 45  0.0-3.831274807453D-05-9.094947017729D-13 5.217000000000D+04
    5.859820800781D+03 4.481315612793D-03-9.313225746155D-10 0.000000000000D+00
   -1.954481298828D+04 2.102161407471D+00 1.862645149231D-09 3.000000000000D+00
    1.530529394531D+04 2.680685043335D+00-9.313225746155D-10 0.000000000000D+00
16 12 10 31 11 45  0.0-1.345574855804D-05-0.000000000000D+00 5.217000000000D+04
    1.828091015625D+04 6.916170120239D-01 1.862645149231D-09 0.000000000000D+00
   -1.629083886719D+04-6.848134994507D-01 1.862645149231D-09-1.000000000000D+00
    6.932847167969D+03-3.427367210388D+00-1.862645149231D-09 0.000000000000D+00
15 12 10 31 11 45  0.0 1.144595444202D-06 0.000000000000D+00 5.217000000000D+04
    2.152272705078D+04-1.234000205994D+00 3.725290298462D-09 0.000000000000D+00
   -9.651555664062D+03 5.823459625244D-01 1.862645149231D-09 0.000000000000D+00
   -9.816429687500D+03-3.265834808350D+00-9.313225746155D-10 0.000000000000D+00
 9 12 10 31 11 45  0.0-2.348795533180D-05 0.000000000000D+00 5.217000000000D+04
    4.670349609375D+03 2.261112213135D+00-9.313225746155D-10 0.000000000000D+00
   -1.459779931641D+04-1.647778511047D+00 9.313225746155D-10-2.000000000000D+00
    2.040034521484D+04-1.687252998352D+00-1.862645149231D-09 0.000000000000D+00
20 12 10 31 11 45  0.0-1.026131212711D-05-1.818989403546D-12 5.217000000000D+04
   -2.545328613281D+03-1.961116790771D-01-9.313225746155D-10 0.000000000000D+00
   -2.528793603516D+04-2.359695434570D-01 1.862645149231D-09 2.000000000000D+00
   -1.813322753906D+03 3.573282241821D+00 9.313225746155D-10 0.000000000000D+00
18 12 10 31 11 45  0.0-3.928504884243D-05-9.094947017729D-13 5.217000000000D+04
    1.077965234375D+04 2.403211593628D-01-0.000000000000D+00 0.000000000000D+00
   -1.413529296875D+03 3.148681640625D+00 0.000000000000D+00-3.000000000000D+00
    2.309014599609D+04 8.972358703613D-02-2.793967723846D-09 0.000000000000D+00
 7 12 10 31 11 45  0.0-4.111882299185D-05-9.094947017729D-13 5.217000000000D+04
   -2.146929736328D+04 5.678234100342D-01-3.725290298462D-09 0.000000000000D+00
   -1.277067626953D+04 4.490804672241D-01 0.000000000000D+00 5.000000000000D+00
   -5.107684570312D+03-3.485237121582D+00 2.793967723846D-09 0.000000000000D+00
11 12 10 31 11 45  0.0-5.631148815155D-05 0.000000000000D+00 5.217000000000D+04
   -2.109535058594D+04 1.419433593750D+00-4.656612873077D-09 0.000000000000D+00
    8.255625976562D+03-7.620172500610D-01-1.862645149231D-09 0.000000000000D+00
    1.165613232422D+04 3.115507125854D+00 0.000000000000D+00 0.000000000000D+00
 6 12 10 31 11 45  0.0 2.075918018818D-05 0.000000000000D+00 5.217000000000D+04
   -8.566476074219D+03 2.359907150269D+00-0.000000000000D+00 0.000000000000D+00
   -1.427099267578D+04 1.196093559265D+00 9.313225746155D-10-4.000000000000D+00
   -1.932972900391D+04-1.932521820068D+00 1.862645149231D-09 0.000000000000D+00
 8 12 10 31 11 45  0.0-1.595458015800D-04 1.818989403546D-12 5.217000000000D+04
   -2.242725927734D+04-1.551239013672D+00-5.587935447693D-09 0.000000000000D+00
   -2.166642578125D+03-5.186805725098D-01-9.313225746155D-10 6.000000000000D+00
    1.192679736328D+04-3.010541915894D+00 9.313225746155D-10 0.000000000000D+00
12 12 10 31 11 45  0.0-1.033246517181D-04 1.818989403546D-12 5.217000000000D+04
   -1.859128808594D+04-6.337785720825D-01-9.313225746155D-10 0.000000000000D+00
    1.630656298828D+04 6.715230941772D-01-1.862645149231D-09-1.000000000000D+00
   -6.633945800781D+03 3.423377037048D+00 1.862645149231D-09 0.000000000000D+00
22 12 10 31 11 45  0.0 6.275624036789D-05 9.094947017729D-13 5.217000000000D+04
   -1.079833984375D+04-2.433738708496D-01 0.000000000000D+00 0.000000000000D+00
    1.205984863281D+03-3.150642395020D+00-0.000000000000D+00-3.000000000000D+00
   -2.308294970703D+04-3.773975372314D-02 2.793967723846D-09 0.000000000000D+00
21 12 10 31 11 45  0.0-7.441267371178D-07 9.094947017729D-13 5.217000000000D+04
   -9.143233886719D+03-3.011226654053D-01-9.313225746155D-10 0.000000000000D+00
   -1.708420898438D+04-2.258723258972D+00 9.313225746155D-10 4.000000000000D+00
   -1.665569580078D+04 2.474320411682D+00 1.862645149231D-09 0.000000000000D+00
 1 12 10 31 11 45  0.0-1.759752631187D-04 0.000000000000D+00 5.220000000000D+04
   -9.505019531250D+03-2.796925544739D+00-2.793967723846D-09 0.000000000000D+00
    7.443871582031D+03-1.279014587402D+00-1.862645149231D-09 1.000000000000D+00
    2.247743701172D+04-7.575330734253D-01-9.313225746155D-10 0.000000000000D+00
17 12 10 31 11 45  0.0 4.528928548098D-05 9.094947017729D-13 5.220000000000D+04
    9.226860351562D+03 2.986841201782D-01 9.313225746155D-10 0.000000000000D+00
    1.684035644531D+04 2.280966758728D+00-9.313225746155D-10 4.000000000000D+00
    1.678864990234D+04-2.457474708557D+00-1.862645149231D-09 0.000000000000D+00
24 12 10 31 11 45  0.0-8.171144872904D-05 0.000000000000D+00 5.220000000000D+04
    2.028846679688D+03 1.763906478882D-01 1.862645149231D-09 0.000000000000D+00
    2.542538623047D+04-9.563446044922D-03-1.862645149231D-09 2.000000000000D+00
    3.477050781250D+00-3.577157020569D+00 0.000000000000D+00 0.000000000000D+00
 2 12 10 31 11 45  0.0-3.409255295992D-04-1.818989403546D-12 5.220000000000D+04
    9.200034667969D+03-2.314867973328D+00 0.000000000000D+00 0.000000000000D+00
    1.441323632812D+04-1.163716316223D+00-9.313225746155D-10-4.000000000000D+00
    1.892861865234D+04 2.013240814209D+00-1.862645149231D-09 0.000000000000D+00
 3 12 10 31 11 45  0.0-1.235995441675D-04 0.000000000000D+00 5.220000000000D+04
    2.144809423828D+04-5.709838867188D-01 3.725290298462D-09 0.000000000000D+00
    1.280982373047D+04-4.521398544312D-01 0.000000000000D+00 5.000000000000D+00
    5.223946777344D+03 3.479654312134D+00-1.862645149231D-09 0.000000000000D+00
10 12 10 31 11 45  0.0-5.776714533567D-05 0.000000000000D+00 5.241000000000D+04
   -1.106298388672D+04 2.574442863464D+00-3.725290298462D-09 0.000000000000D+00
   -4.575152343750D+03-1.712001800537D+00 0.000000000000D+00-7.000000000000D+00
    2.252380908203D+04 9.080505371094D-01-9.313225746155D-10 0.000000000000D+00
